STARLINK-32857          
1 62949U 25029B   26068.75859580  .00032377  00000+0  11005-2 0  9997
2 62949  53.1597 229.6251 0001132  71.1515 288.9609 15.30199584 61404
GLOBAL-34               
1 68098U 26043A   26068.47466435  .00014018  00000+0  45822-3 0  9994
2 68098  42.0215  76.7399 0006884 289.2632  70.7460 15.31488019   538
